{
  "type": "FeatureCollection",
  "features": [
    {
      "type": "Feature",
      "properties": {
        "norad_id": 33765,
        "name": "COSMOS 2251 DEB",
        "group": "cosmos-2251-debris",
        "lat": -26.442732415037312,
        "lon": 147.16663822893995,
        "alt_km": 537.2454702078976,
        "timestamp": "2025-12-21T07:34:34.907238+00:00",
        "meta_object_name": "COSMOS 2251 DEB",
        "meta_object_id": "1993-036N",
        "meta_epoch": "2025-12-20T21:16:49.482912",
        "meta_mean_motion": 15.10410664,
        "meta_eccentricity": 0.00649749,
        "meta_inclination": 74.0079,
        "meta_ra_of_asc_node": 156.2541,
        "meta_arg_of_pericenter": 247.0336,
        "meta_mean_anomaly": 273.0579,
        "meta_ephemeris_type": 0,
        "meta_classification_type": "U",
        "meta_norad_cat_id": 33765,
        "meta_element_set_no": 999,
        "meta_rev_at_epoch": 89741,
        "meta_bstar": 0.0011838573,
        "meta_mean_motion_dot": 0.00020474,
        "meta_mean_motion_ddot": 0,
        "tle_line1": "1 33765U 93036N   25354.88668383  .00020474  00000+0  11839-2 0  9994",
        "tle_line2": "2 33765  74.0079 156.2541 0064974 247.0336 273.0579 15.10410664897412"
      },
      "geometry": {
        "type": "Point",
        "coordinates": [
          147.16663822893995,
          -26.442732415037312
        ]
      }
    },
    {
      "type": "Feature",
      "properties": {
        "norad_id": 33766,
        "name": "COSMOS 2251 DEB",
        "group": "cosmos-2251-debris",
        "lat": 21.548949795524663,
        "lon": 125.83241706473348,
        "alt_km": 752.8417766621988,
        "timestamp": "2025-12-21T07:34:34.907247+00:00",
        "meta_object_name": "COSMOS 2251 DEB",
        "meta_object_id": "1993-036P",
        "meta_epoch": "2025-12-20T18:05:14.529696",
        "meta_mean_motion": 14.34954991,
        "meta_eccentricity": 0.00645779,
        "meta_inclination": 74.1857,
        "meta_ra_of_asc_node": 120.4265,
        "meta_arg_of_pericenter": 321.5896,
        "meta_mean_anomaly": 38.0667,
        "meta_ephemeris_type": 0,
        "meta_classification_type": "U",
        "meta_norad_cat_id": 33766,
        "meta_element_set_no": 999,
        "meta_rev_at_epoch": 87860,
        "meta_bstar": 0.00035289789,
        "meta_mean_motion_dot": 1.003e-05,
        "meta_mean_motion_ddot": 0,
        "tle_line1": "1 33766U 93036P   25354.75364039  .00001003  00000+0  35290-3 0  9997",
        "tle_line2": "2 33766  74.1857 120.4265 0064577 321.5896  38.0667 14.34954991878600"
      },
      "geometry": {
        "type": "Point",
        "coordinates": [
          125.83241706473348,
          21.548949795524663
        ]
      }
    },
    {
      "type": "Feature",
      "properties": {
        "norad_id": 33768,
        "name": "COSMOS 2251 DEB",
        "group": "cosmos-2251-debris",
        "lat": 61.16873773196306,
        "lon": -5.233754172065492,
        "alt_km": 1130.0381026470504,
        "timestamp": "2025-12-21T07:34:34.907257+00:00",
        "meta_object_name": "COSMOS 2251 DEB",
        "meta_object_id": "1993-036R",
        "meta_epoch": "2025-12-20T20:29:45.191328",
        "meta_mean_motion": 13.584614,
        "meta_eccentricity": 0.0366703,
        "meta_inclination": 74.0667,
        "meta_ra_of_asc_node": 206.7723,
        "meta_arg_of_pericenter": 2.7465,
        "meta_mean_anomaly": 10.6176,
        "meta_ephemeris_type": 0,
        "meta_classification_type": "U",
        "meta_norad_cat_id": 33768,
        "meta_element_set_no": 999,
        "meta_rev_at_epoch": 83406,
        "meta_bstar": 0.00024989884,
        "meta_mean_motion_dot": 2.61e-06,
        "meta_mean_motion_ddot": 0,
        "tle_line1": "1 33768U 93036R   25354.85399527  .00000261  00000+0  24990-3 0  9990",
        "tle_line2": "2 33768  74.0667 206.7723 0366703   2.7465  10.6176 13.58461400834069"
      },
      "geometry": {
        "type": "Point",
        "coordinates": [
          -5.233754172065492,
          61.16873773196306
        ]
      }
    },
    {
      "type": "Feature",
      "properties": {
        "norad_id": 33779,
        "name": "COSMOS 2251 DEB",
        "group": "cosmos-2251-debris",
        "lat": 21.157158053282174,
        "lon": 160.44738945660637,
        "alt_km": 669.6678692220794,
        "timestamp": "2025-12-21T07:34:34.907267+00:00",
        "meta_object_name": "COSMOS 2251 DEB",
        "meta_object_id": "1993-036U",
        "meta_epoch": "2025-12-20T20:36:04.558176",
        "meta_mean_motion": 14.70633581,
        "meta_eccentricity": 0.00163431,
        "meta_inclination": 74.0444,
        "meta_ra_of_asc_node": 154.977,
        "meta_arg_of_pericenter": 188.0503,
        "meta_mean_anomaly": 294.0991,
        "meta_ephemeris_type": 0,
        "meta_classification_type": "U",
        "meta_norad_cat_id": 33779,
        "meta_element_set_no": 999,
        "meta_rev_at_epoch": 88647,
        "meta_bstar": 0.0015645074,
        "meta_mean_motion_dot": 9.52e-05,
        "meta_mean_motion_ddot": 0,
        "tle_line1": "1 33779U 93036U   25354.85838609  .00009520  00000+0  15645-2 0  9994",
        "tle_line2": "2 33779  74.0444 154.9770 0016343 188.0503 294.0991 14.70633581886474"
      },
      "geometry": {
        "type": "Point",
        "coordinates": [
          160.44738945660637,
          21.157158053282174
        ]
      }
    },
    {
      "type": "Feature",
      "properties": {
        "norad_id": 33782,
        "name": "COSMOS 2251 DEB",
        "group": "cosmos-2251-debris",
        "lat": -60.95919394252343,
        "lon": -129.35358066504702,
        "alt_km": 750.8418756451065,
        "timestamp": "2025-12-21T07:34:34.907277+00:00",
        "meta_object_name": "COSMOS 2251 DEB",
        "meta_object_id": "1993-036X",
        "meta_epoch": "2025-12-20T05:58:18.713280",
        "meta_mean_motion": 14.40465426,
        "meta_eccentricity": 0.0021018,
        "meta_inclination": 74.0331,
        "meta_ra_of_asc_node": 263.6592,
        "meta_arg_of_pericenter": 327.4695,
        "meta_mean_anomaly": 197.1536,
        "meta_ephemeris_type": 0,
        "meta_classification_type": "U",
        "meta_norad_cat_id": 33782,
        "meta_element_set_no": 999,
        "meta_rev_at_epoch": 88234,
        "meta_bstar": 0.0002698,
        "meta_mean_motion_dot": 8.33e-06,
        "meta_mean_motion_ddot": 0,
        "tle_line1": "1 33782U 93036X   25354.24882770  .00000833  00000+0  26980-3 0  9992",
        "tle_line2": "2 33782  74.0331 263.6592 0021018 327.4695 197.1536 14.40465426882347"
      },
      "geometry": {
        "type": "Point",
        "coordinates": [
          -129.35358066504702,
          -60.95919394252343
        ]
      }
    },
    {
      "type": "Feature",
      "properties": {
        "norad_id": 33785,
        "name": "COSMOS 2251 DEB",
        "group": "cosmos-2251-debris",
        "lat": -3.3706168899675295,
        "lon": 42.136910640452165,
        "alt_km": 646.4349344026814,
        "timestamp": "2025-12-21T07:34:34.907286+00:00",
        "meta_object_name": "COSMOS 2251 DEB",
        "meta_object_id": "1993-036AA",
        "meta_epoch": "2025-12-20T20:58:20.621856",
        "meta_mean_motion": 14.70649208,
        "meta_eccentricity": 0.00230465,
        "meta_inclination": 73.867,
        "meta_ra_of_asc_node": 43.9797,
        "meta_arg_of_pericenter": 341.8228,
        "meta_mean_anomaly": 196.4606,
        "meta_ephemeris_type": 0,
        "meta_classification_type": "U",
        "meta_norad_cat_id": 33785,
        "meta_element_set_no": 999,
        "meta_rev_at_epoch": 88626,
        "meta_bstar": 0.0011399819,
        "meta_mean_motion_dot": 6.941e-05,
        "meta_mean_motion_ddot": 0,
        "tle_line1": "1 33785U 93036AA  25354.87384979  .00006941  00000+0  11400-2 0  9998",
        "tle_line2": "2 33785  73.8670  43.9797 0023046 341.8228 196.4606 14.70649208886264"
      },
      "geometry": {
        "type": "Point",
        "coordinates": [
          42.136910640452165,
          -3.3706168899675295
        ]
      }
    },
    {
      "type": "Feature",
      "properties": {
        "norad_id": 33789,
        "name": "COSMOS 2251 DEB",
        "group": "cosmos-2251-debris",
        "lat": 8.49694203615402,
        "lon": -109.59454981043949,
        "alt_km": 764.9427051367093,
        "timestamp": "2025-12-21T07:34:34.907295+00:00",
        "meta_object_name": "COSMOS 2251 DEB",
        "meta_object_id": "1993-036AE",
        "meta_epoch": "2025-12-20T22:40:03.281952",
        "meta_mean_motion": 13.88812811,
        "meta_eccentricity": 0.02398122,
        "meta_inclination": 74.0645,
        "meta_ra_of_asc_node": 73.4815,
        "meta_arg_of_pericenter": 187.3065,
        "meta_mean_anomaly": 289.2874,
        "meta_ephemeris_type": 0,
        "meta_classification_type": "U",
        "meta_norad_cat_id": 33789,
        "meta_element_set_no": 999,
        "meta_rev_at_epoch": 85209,
        "meta_bstar": 0.00050501536,
        "meta_mean_motion_dot": 7.44e-06,
        "meta_mean_motion_ddot": 0,
        "tle_line1": "1 33789U 93036AE  25354.94448243  .00000744  00000+0  50502-3 0  9997",
        "tle_line2": "2 33789  74.0645  73.4815 0239812 187.3065 289.2874 13.88812811852096"
      },
      "geometry": {
        "type": "Point",
        "coordinates": [
          -109.59454981043949,
          8.49694203615402
        ]
      }
    }
  ]
}